{"fetched_at":"2026-07-05T12:47:52.452Z","source":"https://celestrak.org/NORAD/elements/gp.php?NAME=CAPELLA&FORMAT=JSON","constellation":"capella","records":[{"OBJECT_NAME":"CAPELLA-11 (ACADIA-1)","OBJECT_ID":"2023-126A","EPOCH":"2026-07-05T03:47:23.232192","CLASSIFICATION_TYPE":"U","MEAN_MOTION":14.84459748,"ECCENTRICITY":0.00016992,"INCLINATION":53.005,"RA_OF_ASC_NODE":106.9012,"ARG_OF_PERICENTER":101.5847,"MEAN_ANOMALY":258.5323,"EPHEMERIS_TYPE":0,"NORAD_CAT_ID":57693,"ELEMENT_SET_NO":999,"REV_AT_EPOCH":15479,"BSTAR":0.00099597685,"MEAN_MOTION_DOT":0.00008242,"MEAN_MOTION_DDOT":0},{"OBJECT_NAME":"CAPELLA-14 (ACADIA-4)","OBJECT_ID":"2024-066C","EPOCH":"2026-07-04T23:23:10.243968","CLASSIFICATION_TYPE":"U","MEAN_MOTION":15.09606328,"ECCENTRICITY":0.00013581,"INCLINATION":45.6021,"RA_OF_ASC_NODE":161.5142,"ARG_OF_PERICENTER":153.2791,"MEAN_ANOMALY":206.8165,"EPHEMERIS_TYPE":0,"NORAD_CAT_ID":59444,"ELEMENT_SET_NO":999,"REV_AT_EPOCH":11517,"BSTAR":0.0014298556,"MEAN_MOTION_DOT":0.00023167,"MEAN_MOTION_DDOT":0},{"OBJECT_NAME":"CAPELLA-13 (ACADIA-3)","OBJECT_ID":"2024-142A","EPOCH":"2026-07-04T16:49:12.653760","CLASSIFICATION_TYPE":"U","MEAN_MOTION":14.87674917,"ECCENTRICITY":0.00012997,"INCLINATION":53.0066,"RA_OF_ASC_NODE":341.119,"ARG_OF_PERICENTER":93.8207,"MEAN_ANOMALY":266.2922,"EPHEMERIS_TYPE":0,"NORAD_CAT_ID":60419,"ELEMENT_SET_NO":999,"REV_AT_EPOCH":10301,"BSTAR":0.0010425326,"MEAN_MOTION_DOT":0.00009358,"MEAN_MOTION_DDOT":0},{"OBJECT_NAME":"CAPELLA-15 (ACADIA-5)","OBJECT_ID":"2024-149CE","EPOCH":"2026-07-04T16:30:30.265920","CLASSIFICATION_TYPE":"U","MEAN_MOTION":14.92412141,"ECCENTRICITY":0.00037241,"INCLINATION":97.6734,"RA_OF_ASC_NODE":258.1548,"ARG_OF_PERICENTER":23.2249,"MEAN_ANOMALY":336.9138,"EPHEMERIS_TYPE":0,"NORAD_CAT_ID":60544,"ELEMENT_SET_NO":999,"REV_AT_EPOCH":10246,"BSTAR":0.00070141149,"MEAN_MOTION_DOT":0.00007133,"MEAN_MOTION_DDOT":0},{"OBJECT_NAME":"CAPELLA-17 (ACADIA-7)","OBJECT_ID":"2025-135BH","EPOCH":"2026-07-04T18:45:22.044096","CLASSIFICATION_TYPE":"U","MEAN_MOTION":14.91536186,"ECCENTRICITY":0.00039348,"INCLINATION":97.7697,"RA_OF_ASC_NODE":299.1431,"ARG_OF_PERICENTER":295.5927,"MEAN_ANOMALY":64.4885,"EPHEMERIS_TYPE":0,"NORAD_CAT_ID":64583,"ELEMENT_SET_NO":999,"REV_AT_EPOCH":5647,"BSTAR":0.0013523248,"MEAN_MOTION_DOT":0.00013515,"MEAN_MOTION_DDOT":0},{"OBJECT_NAME":"CAPELLA-16 (ACADIA-6)","OBJECT_ID":"2025-188D","EPOCH":"2026-07-05T04:11:48.440544","CLASSIFICATION_TYPE":"U","MEAN_MOTION":14.93974798,"ECCENTRICITY":0.00049733,"INCLINATION":97.7378,"RA_OF_ASC_NODE":261.0573,"ARG_OF_PERICENTER":159.9859,"MEAN_ANOMALY":200.1557,"EPHEMERIS_TYPE":0,"NORAD_CAT_ID":65318,"ELEMENT_SET_NO":999,"REV_AT_EPOCH":4660,"BSTAR":0.0011248079,"MEAN_MOTION_DOT":0.00011943,"MEAN_MOTION_DDOT":0},{"OBJECT_NAME":"CAPELLA-19 (ACADIA-9)","OBJECT_ID":"2026-004X","EPOCH":"2026-07-03T23:00:00.259776","CLASSIFICATION_TYPE":"U","MEAN_MOTION":14.86661078,"ECCENTRICITY":0.00014481,"INCLINATION":97.8001,"RA_OF_ASC_NODE":183.0301,"ARG_OF_PERICENTER":90.253,"MEAN_ANOMALY":269.8852,"EPHEMERIS_TYPE":0,"NORAD_CAT_ID":67384,"ELEMENT_SET_NO":999,"REV_AT_EPOCH":2576,"BSTAR":0.0010118189,"MEAN_MOTION_DOT":0.00008941,"MEAN_MOTION_DDOT":0},{"OBJECT_NAME":"CAPELLA-18 (ACADIA-8)","OBJECT_ID":"2026-004Y","EPOCH":"2026-07-04T17:00:36.336096","CLASSIFICATION_TYPE":"U","MEAN_MOTION":14.86653812,"ECCENTRICITY":0.00018521,"INCLINATION":97.8005,"RA_OF_ASC_NODE":183.9193,"ARG_OF_PERICENTER":91.2917,"MEAN_ANOMALY":268.8511,"EPHEMERIS_TYPE":0,"NORAD_CAT_ID":67385,"ELEMENT_SET_NO":999,"REV_AT_EPOCH":2588,"BSTAR":0.00021712643,"MEAN_MOTION_DOT":0.00001874,"MEAN_MOTION_DDOT":0},{"OBJECT_NAME":"CAPELLA-20 (ACADIA-10)","OBJECT_ID":"2026-067BX","EPOCH":"2026-07-04T14:24:12.782016","CLASSIFICATION_TYPE":"U","MEAN_MOTION":14.91757502,"ECCENTRICITY":0.00005701,"INCLINATION":97.7583,"RA_OF_ASC_NODE":143.6157,"ARG_OF_PERICENTER":166.6833,"MEAN_ANOMALY":193.4401,"EPHEMERIS_TYPE":0,"NORAD_CAT_ID":68485,"ELEMENT_SET_NO":999,"REV_AT_EPOCH":1432,"BSTAR":0.0012578145,"MEAN_MOTION_DOT":0.00012634,"MEAN_MOTION_DDOT":0}]}
